NORAD_CAT_ID,OBJECT_NAME,OBJECT_TYPE,EPOCH,MEAN_MOTION,ECCENTRICITY,INCLINATION,RA_OF_ASC_NODE,ARG_OF_PERICENTER,MEAN_ANOMALY,BSTAR,MEAN_MOTION_DOT,MEAN_MOTION_DDOT,TLE_LINE0,TLE_LINE1,TLE_LINE2,SEMIMAJOR_AXIS,PERIOD,APOGEE,PERIGEE,DECAYED
52108.0,STARLINK-3698,PAYLOAD,2023-05-12 21:04:51,15.08845219,0.0001096,53.217,31.1003,82.7392,277.3724,0.00016278,2.304e-05,0.0,0 STARLINK-3698,1 52108U 22029W   23132.87837265  .00002304  00000-0  16278-3 0  9994,2 52108  53.2170  31.1003 0001096  82.7392 277.3724 15.08845219 65018,6917.864,95.437,540.488,538.971,0.0
52108.0,STARLINK-3698,PAYLOAD,2023-05-13 00:15:37,15.08853198,0.0001086,53.2166,30.5066,81.5746,278.5369,0.00026676,3.962e-05,0.0,0 STARLINK-3698,1 52108U 22029W   23133.01084871  .00003962  00000-0  26676-3 0  9992,2 52108  53.2166  30.5066 0001086  81.5746 278.5369 15.08853198 65039,6917.84,95.437,540.456,538.954,0.0
52108.0,STARLINK-3698,PAYLOAD,2023-05-13 20:55:38,15.08840912,0.0001154,53.2165,26.6409,89.2135,270.899,6.9325e-05,8.16e-06,0.0,0 STARLINK-3698,1 52108U 22029W   23133.87197257  .00000816  00000-0  69325-4 0  9993,2 52108  53.2165  26.6409 0001154  89.2135 270.8990 15.08840912 65167,6917.878,95.437,540.541,538.944,0.0
52108.0,STARLINK-3698,PAYLOAD,2023-05-14 00:06:24,15.08844658,0.0001185,53.2172,26.0453,78.8437,281.2689,0.0001629,2.306e-05,0.0,0 STARLINK-3698,1 52108U 22029W   23134.00445266  .00002306  00000-0  16290-3 0  9993,2 52108  53.2172  26.0453 0001185  78.8437 281.2689 15.08844658 65185,6917.866,95.437,540.551,538.911,0.0
52108.0,STARLINK-3698,PAYLOAD,2023-05-14 20:46:25,15.0883971,0.0001258,53.2171,22.1806,83.5816,276.5319,-5.6245e-05,-1.183e-05,0.0,0 STARLINK-3698,1 52108U 22029W   23134.86557341 -.00001183  00000-0 -56245-4 0  9994,2 52108  53.2171  22.1806 0001258  83.5816 276.5319 15.08839710 65313,6917.881,95.438,540.617,538.876,0.0
52108.0,STARLINK-3698,PAYLOAD,2023-05-15 01:32:34,15.08846116,0.000127,53.2176,21.2893,85.0715,275.0422,5.3859e-05,5.7e-06,0.0,0 STARLINK-3698,1 52108U 22029W   23135.06429116  .00000570  00000-0  53859-4 0  9990,2 52108  53.2176  21.2893 0001270  85.0715 275.0422 15.08846116 65343,6917.862,95.437,540.605,538.848,0.0
52108.0,STARLINK-3698,PAYLOAD,2023-05-15 09:29:30,15.08839485,0.0001444,53.2183,19.7996,81.3703,278.7453,-9.0875e-05,-1.734e-05,0.0,0 STARLINK-3698,1 52108U 22029W   23135.39549322 -.00001734  00000-0 -90875-4 0  9992,2 52108  53.2183  19.7996 0001444  81.3703 278.7453 15.08839485 65396,6917.882,95.438,540.746,538.748,0.0
52108.0,STARLINK-3698,PAYLOAD,2023-05-15 23:47:59,15.08841225,0.0001429,53.2186,17.1239,84.6323,275.4832,3.9351e-05,3.38e-06,0.0,0 STARLINK-3698,1 52108U 22029W   23135.99165588  .00000338  00000-0  39351-4 0  9995,2 52108  53.2186  17.1239 0001429  84.6323 275.4832 15.08841225 65488,6917.877,95.437,540.73,538.753,0.0
52108.0,STARLINK-3698,PAYLOAD,2023-05-16 22:03:23,15.08842308,0.0001307,53.2182,12.9606,77.5102,282.6036,7.4886e-05,9.04e-06,0.0,0 STARLINK-3698,1 52108U 22029W   23136.91901742  .00000904  00000-0  74886-4 0  9999,2 52108  53.2182  12.9606 0001307  77.5102 282.6036 15.08842308 65621,6917.873,95.437,540.643,538.834,0.0
52108.0,STARLINK-3698,PAYLOAD,2023-05-17 21:54:10,15.08842048,0.0001308,53.2179,8.4999,89.1293,270.9849,0.00010598,1.399e-05,0.0,0 STARLINK-3698,1 52108U 22029W   23137.91261607  .00001399  00000-0  10598-3 0  9997,2 52108  53.2179   8.4999 0001308  89.1293 270.9849 15.08842048 65772,6917.874,95.437,540.644,538.834,0.0
52108.0,STARLINK-3698,PAYLOAD,2023-05-18 01:04:56,15.08844249,0.0001296,53.218,7.9056,86.5655,273.5486,0.00012022,1.626e-05,0.0,0 STARLINK-3698,1 52108U 22029W   23138.04509425  .00001626  00000-0  12022-3 0  9992,2 52108  53.2180   7.9056 0001296  86.5655 273.5486 15.08844249 65794,6917.867,95.437,540.629,538.836,0.0
52108.0,STARLINK-3698,PAYLOAD,2023-05-18 16:58:48,15.08836153,0.0001314,53.2186,4.9324,84.0473,276.0669,-2.059e-05,-6.16e-06,0.0,0 STARLINK-3698,1 52108U 22029W   23138.70750352 -.00000616  00000-0 -20590-4 0  9992,2 52108  53.2186   4.9324 0001314  84.0473 276.0669 15.08836153 65894,6917.892,95.438,540.666,538.848,0.0
52108.0,STARLINK-3698,PAYLOAD,2023-05-19 21:35:44,15.0884512,0.0001132,53.2176,359.5797,83.7625,276.3496,0.00010293,1.351e-05,0.0,0 STARLINK-3698,1 52108U 22029W   23139.89981604  .00001351  00000-0  10293-3 0  9992,2 52108  53.2176 359.5797 0001132  83.7625 276.3496 15.08845120 66075,6917.865,95.437,540.513,538.947,0.0
52108.0,STARLINK-3698,PAYLOAD,2023-05-20 00:46:30,15.08847283,0.0001141,53.2176,358.9847,83.5689,276.5433,0.00011834,1.596e-05,0.0,0 STARLINK-3698,1 52108U 22029W   23140.03229425  .00001596  00000-0  11834-3 0  9999,2 52108  53.2176 358.9847 0001141  83.5689 276.5433 15.08847283 66099,6917.858,95.437,540.512,538.934,0.0
52108.0,STARLINK-3698,PAYLOAD,2023-05-20 16:40:21,15.08842199,9.08e-05,53.2183,356.0105,72.4101,287.699,0.00010011,1.306e-05,0.0,0 STARLINK-3698,1 52108U 22029W   23140.69469845  .00001306  00000-0  10011-3 0  9998,2 52108  53.2183 356.0105 0000908  72.4101 287.6990 15.08842199 66192,6917.874,95.437,540.367,539.111,0.0
52108.0,STARLINK-3698,PAYLOAD,2023-05-20 21:26:30,15.08851996,0.0001056,53.2176,355.1197,89.9683,270.143,0.00020296,2.945e-05,0.0,0 STARLINK-3698,1 52108U 22029W   23140.89340967  .00002945  00000-0  20296-3 0  9999,2 52108  53.2176 355.1197 0001056  89.9683 270.1430 15.08851996 66223,6917.844,95.437,540.439,538.978,0.0
52108.0,STARLINK-3698,PAYLOAD,2023-05-21 00:37:16,15.08858756,0.0001134,53.2168,354.5242,89.9277,270.1845,0.00030421,4.559e-05,0.0,0 STARLINK-3698,1 52108U 22029W   23141.02588782  .00004559  00000-0  30421-3 0  9998,2 52108  53.2168 354.5242 0001134  89.9277 270.1845 15.08858756 66247,6917.823,95.436,540.473,538.904,0.0
52108.0,STARLINK-3698,PAYLOAD,2023-05-21 16:31:09,15.08825978,0.0001653,53.2171,351.5462,93.5556,266.5625,-0.00018554,-3.239e-05,0.0,0 STARLINK-3698,1 52108U 22029W   23141.68830772 -.00003239  00000-0 -18554-3 0  9998,2 52108  53.2171 351.5462 0001653  93.5556 266.5625 15.08825978 66345,6917.923,95.438,540.932,538.645,0.0
52108.0,STARLINK-3698,PAYLOAD,2023-05-21 18:06:32,15.08826462,0.000126,53.2166,351.2519,88.9183,271.1954,-0.00019312,-3.359e-05,0.0,0 STARLINK-3698,1 52108U 22029W   23141.75454723 -.00003359  00000-0 -19312-3 0  9990,2 52108  53.2166 351.2519 0001260  88.9183 271.1954 15.08826462 66354,6917.922,95.438,540.658,538.915,0.0
52108.0,STARLINK-3698,PAYLOAD,2023-05-22 06:49:38,15.08830488,0.0001197,53.2177,348.8736,70.2367,289.8754,-5.029e-05,-1.088e-05,0.0,0 STARLINK-3698,1 52108U 22029W   23142.28447078 -.00001088  00000-0 -50290-4 0  9992,2 52108  53.2177 348.8736 0001197  70.2367 289.8754 15.08830488 66432,6917.909,95.438,540.603,538.946,0.0
52108.0,STARLINK-3698,PAYLOAD,2023-05-22 16:21:56,15.08840118,0.0001141,53.2174,347.0894,78.2171,281.8949,4.1892e-05,3.79e-06,0.0,0 STARLINK-3698,1 52108U 22029W   23142.68190847  .00000379  00000-0  41892-4 0  9993,2 52108  53.2174 347.0894 0001141  78.2171 281.8949 15.08840118 66490,6917.88,95.438,540.534,538.956,0.0
52108.0,STARLINK-3698,PAYLOAD,2023-05-23 19:23:30,15.08861123,0.0001091,53.2163,342.0349,75.2181,284.8932,0.00087751,0.00013713,0.0,0 STARLINK-3698,1 52108U 22029W   23143.80798866  .00013713  00000-0  87751-3 0  9992,2 52108  53.2163 342.0349 0001091  75.2181 284.8932 15.08861123 66663,6917.816,95.436,540.436,538.926,0.0
52108.0,STARLINK-3698,PAYLOAD,2023-05-23 20:58:53,15.08860647,0.0001066,53.2165,341.7376,72.444,287.6669,0.00082036,0.000128,0.0,0 STARLINK-3698,1 52108U 22029W   23143.87422817  .00012800  00000-0  82036-3 0  9996,2 52108  53.2165 341.7376 0001066  72.4440 287.6669 15.08860647 66679,6917.817,95.436,540.42,538.945,0.0
52108.0,STARLINK-3698,PAYLOAD,2023-05-24 12:52:44,15.08849048,0.0001122,53.2165,338.7636,83.5019,276.61,0.00065565,0.00010165,0.0,0 STARLINK-3698,1 52108U 22029W   23144.53662726  .00010165  00000-0  65565-3 0  9995,2 52108  53.2165 338.7636 0001122  83.5019 276.6100 15.08849048 66773,6917.853,95.437,540.494,538.942,0.0
52108.0,STARLINK-3698,PAYLOAD,2023-05-24 14:28:07,15.08853491,0.0001084,53.2165,338.4663,83.6817,276.4299,0.0005151,7.922e-05,0.0,0 STARLINK-3698,1 52108U 22029W   23144.60286602  .00007922  00000-0  51510-3 0  9990,2 52108  53.2165 338.4663 0001084  83.6817 276.4299 15.08853491 66789,6917.839,95.437,540.454,538.954,0.0
52108.0,STARLINK-3698,PAYLOAD,2023-05-25 19:05:03,15.08847573,0.0001217,53.217,333.1139,75.7131,284.3996,0.00039995,6.084e-05,0.0,0 STARLINK-3698,1 52108U 22029W   23145.79518485  .00006084  00000-0  39995-3 0  9999,2 52108  53.2170 333.1139 0001217  75.7131 284.3996 15.08847573 66960,6917.857,95.437,540.564,538.88,0.0
52108.0,STARLINK-3698,PAYLOAD,2023-05-26 12:34:18,15.08838659,0.0001244,53.2169,329.8428,75.3282,284.7848,6.5947e-05,7.62e-06,0.0,0 STARLINK-3698,1 52108U 22029W   23146.52382715  .00000762  00000-0  65947-4 0  9990,2 52108  53.2169 329.8428 0001244  75.3282 284.7848 15.08838659 67072,6917.884,95.438,540.61,538.889,0.0
52108.0,STARLINK-3698,PAYLOAD,2023-05-26 17:20:28,15.08838856,0.0001163,53.2172,328.9511,87.3945,272.718,1.8183e-05,2e-08,0.0,0 STARLINK-3698,1 52108U 22029W   23146.72254761  .00000002  00000-0  18183-4 0  9998,2 52108  53.2172 328.9511 0001163  87.3945 272.7180 15.08838856 67107,6917.884,95.438,540.553,538.944,0.0
52108.0,STARLINK-3698,PAYLOAD,2023-05-26 18:55:51,15.08838564,0.0001163,53.2172,328.6538,86.9414,273.1712,7.8017e-06,-1.64e-06,0.0,0 STARLINK-3698,1 52108U 22029W   23146.78878751 -.00000164  00000-0  78017-5 0  9998,2 52108  53.2172 328.6538 0001163  86.9414 273.1712 15.08838564 67112,6917.885,95.438,540.554,538.945,0.0
52108.0,STARLINK-3698,PAYLOAD,2023-05-27 18:46:38,15.08839901,0.0001052,53.2172,324.1937,99.7176,260.3935,7.1667e-05,8.53e-06,0.0,0 STARLINK-3698,1 52108U 22029W   23147.78238786  .00000853  00000-0  71667-4 0  9994,2 52108  53.2172 324.1937 0001052  99.7176 260.3935 15.08839901 67267,6917.881,95.438,540.473,539.018,0.0
